[{"OBJECT_NAME":"SIGI","OBJECT_ID":"2025-009Z","EPOCH":"2026-03-09T22:08:54.692736","MEAN_MOTION":15.23445824,"ECCENTRICITY":0.00019568,"INCLINATION":97.4047,"RA_OF_ASC_NODE":150.3738,"ARG_OF_PERICENTER":318.6476,"MEAN_ANOMALY":41.4612,"EPHEMERIS_TYPE":0,"CLASSIFICATION_TYPE":"U","NORAD_CAT_ID":62632,"ELEMENT_SET_NO":999,"REV_AT_EPOCH":6368,"BSTAR":0.00028660124,"MEAN_MOTION_DOT":6.759e-5,"MEAN_MOTION_DDOT":0},{"OBJECT_NAME":"AEROCUBE 18B","OBJECT_ID":"2025-052N","EPOCH":"2026-03-09T16:50:02.994720","MEAN_MOTION":15.23094619,"ECCENTRICITY":0.00062515,"INCLINATION":97.4088,"RA_OF_ASC_NODE":323.4677,"ARG_OF_PERICENTER":110.4629,"MEAN_ANOMALY":249.728,"EPHEMERIS_TYPE":0,"CLASSIFICATION_TYPE":"U","NORAD_CAT_ID":63222,"ELEMENT_SET_NO":999,"REV_AT_EPOCH":5474,"BSTAR":0.00034527206,"MEAN_MOTION_DOT":8.078e-5,"MEAN_MOTION_DDOT":0}]
